<?xml version="1.0" encoding="UTF-8"?>
<kml xmlns="http://www.opengis.net/kml/2.2" xmlns:gx="http://www.google.com/kml/ext/2.2" xmlns:kml="http://www.opengis.net/kml/2.2" xmlns:atom="http://www.w3.org/2005/Atom">
<Document>
	<name>Untitled project</name>
	<gx:CascadingStyle kml:id="__managed_style_26BA3D84163A4594C23C">
		<Style>
			<IconStyle>
				<scale>1.2</scale>
				<Icon>
					<href>https://earth.google.com/earth/document/icon?color=1976d2&amp;id=2000&amp;scale=4</href>
				</Icon>
				<hotSpot x="64" y="128" xunits="pixels" yunits="insetPixels"/>
			</IconStyle>
			<LabelStyle>
			</LabelStyle>
			<LineStyle>
				<color>ff2dc0fb</color>
				<width>1.5</width>
			</LineStyle>
			<PolyStyle>
				<color>40ffffff</color>
			</PolyStyle>
			<BalloonStyle>
				<displayMode>hide</displayMode>
			</BalloonStyle>
		</Style>
	</gx:CascadingStyle>
	<gx:CascadingStyle kml:id="__managed_style_1550645A753A4594C23C">
		<Style>
			<IconStyle>
				<Icon>
					<href>https://earth.google.com/earth/document/icon?color=1976d2&amp;id=2000&amp;scale=4</href>
				</Icon>
				<hotSpot x="64" y="128" xunits="pixels" yunits="insetPixels"/>
			</IconStyle>
			<LabelStyle>
			</LabelStyle>
			<LineStyle>
				<color>ff2dc0fb</color>
			</LineStyle>
			<PolyStyle>
				<color>40ffffff</color>
			</PolyStyle>
			<BalloonStyle>
				<displayMode>hide</displayMode>
			</BalloonStyle>
		</Style>
	</gx:CascadingStyle>
	<StyleMap id="__managed_style_03E0E880E03A4594C23C">
		<Pair>
			<key>normal</key>
			<styleUrl>#__managed_style_1550645A753A4594C23C</styleUrl>
		</Pair>
		<Pair>
			<key>highlight</key>
			<styleUrl>#__managed_style_26BA3D84163A4594C23C</styleUrl>
		</Pair>
	</StyleMap>
	<Placemark id="0A41017CB33A4583F829">
		<name>Untitled path</name>
		<LookAt>
			<longitude>-0.5253533833860957</longitude>
			<latitude>53.27522443207928</latitude>
			<altitude>53.6695817441396</altitude>
			<heading>0</heading>
			<tilt>0</tilt>
			<gx:fovy>30</gx:fovy>
			<range>169.7628547330714</range>
			<altitudeMode>absolute</altitudeMode>
		</LookAt>
		<styleUrl>#__managed_style_03E0E880E03A4594C23C</styleUrl>
		<LineString>
			<coordinates>
				-0.5282140638040445,53.27494958515178,0 -0.528099604207154,53.27499123256599,0 -0.5280527247738187,53.2749541867956,0 -0.5281001612591585,53.27499126766853,0 -0.5280238577536844,53.27501639403789,0 -0.5279266881948153,53.27504930193175,0 -0.5278106342445155,53.27507848396891,0 -0.5277125979374031,53.27509580965531,0 -0.5275532690477613,53.27512128383648,0 -0.5273990271469997,53.27514561253727,0 -0.5272549370006852,53.27515989646659,0 -0.5270398901066731,53.2751727677181,0 -0.5268037980794749,53.27517631560141,0 -0.5265796087721464,53.27517864989215,0 -0.5263774289924383,53.27517304760151,0 -0.5261652349570556,53.27515745673723,0 -0.5259282857718628,53.27513335206498,0 -0.5257150891814111,53.27510748211789,0 -0.5254665926406565,53.27507132021758,0 -0.5251832794034961,53.27502986141452,0 
			</coordinates>
		</LineString>
	</Placemark>
	<Placemark id="06C016448D3A45854EA8">
		<name>Untitled path</name>
		<LookAt>
			<longitude>-0.5236359640083943</longitude>
			<latitude>53.27429236445604</latitude>
			<altitude>49.44484277465794</altitude>
			<heading>1.32828177738705</heading>
			<tilt>0</tilt>
			<gx:fovy>30</gx:fovy>
			<range>122.037546993779</range>
			<altitudeMode>absolute</altitudeMode>
		</LookAt>
		<styleUrl>#__managed_style_03E0E880E03A4594C23C</styleUrl>
		<LineString>
			<coordinates>
				-0.5283893276122908,53.27495133563311,0 -0.5282150016192,53.27494992653978,0 -0.5280513813400645,53.27495428156286,0 -0.5279484933527345,53.27496521992894,0 -0.5277544379628574,53.2750397088269,0 -0.5276405622858693,53.27507905975628,0 -0.5274519221965801,53.27509679960028,0 -0.5272362702444444,53.27511487635476,0 -0.5270325407727916,53.27512478858633,0 -0.5268789674655106,53.27513129732467,0 -0.526683608211137,53.27512713463724,0 -0.526415173610969,53.27511364111978,0 -0.5261564408797592,53.27509863220214,0 -0.5259044681799041,53.27508919772072,0 -0.5257204790976544,53.27506502467192,0 -0.5254690028315934,53.27502358307972,0 -0.5252333838980094,53.27498455160618,0 -0.524957102747472,53.27493926092893,0 -0.5246360066940858,53.27489030908407,0 -0.5244040213168377,53.27485657093356,0 -0.5243152261239792,53.27479374736276,0 -0.5242741732162459,53.27470279489156,0 -0.524230303153993,53.27462714710587,0 -0.5241802881017132,53.27455022330714,0 -0.5241395426143591,53.27449300406409,0 -0.5240079706523337,53.27438546890522,0 -0.5238788858354881,53.27426166791637,0 -0.5237916763041517,53.27419184807408,0 -0.5236907618853404,53.27409797089643,0 -0.5235822011664359,53.27393591898738,0 -0.5234884041502219,53.27378495549092,0 
			</coordinates>
		</LineString>
	</Placemark>
	<Placemark id="0C0B8A2F813A45929C40">
		<name>Untitled path</name>
		<LookAt>
			<longitude>-0.5278436107789086</longitude>
			<latitude>53.27515179848827</latitude>
			<altitude>53.75222672300242</altitude>
			<heading>-81.04423970289096</heading>
			<tilt>2.218501230240061</tilt>
			<gx:fovy>30</gx:fovy>
			<range>129.4438793363952</range>
			<altitudeMode>absolute</altitudeMode>
		</LookAt>
		<styleUrl>#__managed_style_03E0E880E03A4594C23C</styleUrl>
		<LineString>
			<coordinates>
				-0.5281481745279293,53.2750289534337,0 -0.5281015238061637,53.27507020083326,0 -0.5280567670022907,53.27510751927546,0 -0.5278664762208884,53.27517201746672,0 -0.5276912790631472,53.27520986043755,0 -0.5275104860189717,53.27524026164419,0 -0.5273013139332494,53.27527503570568,0 -0.5270794783213995,53.27529882317656,0 -0.5268312078319526,53.27531206288079,0 -0.5266524053040689,53.27531797483402,0 -0.5264881322774373,53.27531862709474,0 -0.5262944608635711,53.27531752676335,0 -0.5260843315707653,53.2753095962309,0 -0.5259042972556693,53.27529263095411,0 
			</coordinates>
		</LineString>
	</Placemark>
	<Placemark id="0F68E98FC73A45963136">
		<name>Untitled path</name>
		<LookAt>
			<longitude>-0.5255706223348755</longitude>
			<latitude>53.27515351380792</latitude>
			<altitude>53.77597605958564</altitude>
			<heading>348.9574784590285</heading>
			<tilt>0</tilt>
			<gx:fovy>30</gx:fovy>
			<range>76.45065672101737</range>
			<altitudeMode>absolute</altitudeMode>
		</LookAt>
		<styleUrl>#__managed_style_03E0E880E03A4594C23C</styleUrl>
		<LineString>
			<coordinates>
				-0.5281004621842933,53.27499149019553,0 -0.5281478646731974,53.27503086301167,0 -0.5279773057790893,53.27508080225861,0 -0.5277731751631087,53.27512064243152,0 -0.5275414295159364,53.27515658495252,0 -0.5273389436303877,53.27518178725123,0 -0.5271727598552967,53.27519666178997,0 -0.5269658017126133,53.27521490800785,0 -0.5267928088462814,53.27522176933273,0 -0.526596963981546,53.27522237780913,0 -0.5263903440086548,53.27521575501827,0 -0.5261781756619133,53.27520251631488,0 -0.5259546739804111,53.27518121186949,0 -0.525708322797358,53.27515219562852,0 -0.5254599048429109,53.27511727705732,0 -0.5252765865481268,53.27508969076452,0 
			</coordinates>
		</LineString>
	</Placemark>
	<Placemark id="015BB63A673A45AEFF14">
		<name>Untitled path</name>
		<LookAt>
			<longitude>-0.5276036809452878</longitude>
			<latitude>53.27527841723185</latitude>
			<altitude>53.42735145502346</altitude>
			<heading>348.9566271196414</heading>
			<tilt>0</tilt>
			<gx:fovy>30</gx:fovy>
			<range>162.4224278942347</range>
			<altitudeMode>absolute</altitudeMode>
		</LookAt>
		<styleUrl>#__managed_style_03E0E880E03A4594C23C</styleUrl>
		<LineString>
			<coordinates>
				-0.528102177434685,53.27507025654821,0 -0.5280281238867413,53.27508654303305,0 -0.5279066915097075,53.27512051236145,0 -0.527826261605151,53.27514311719496,0 -0.5277438040060523,53.27516076301342,0 -0.5276438065518552,53.27517912387085,0 -0.5275574285717266,53.27519322910704,0 -0.5274315300808841,53.27521486769039,0 -0.5273251856205163,53.27522967415958,0 -0.5272018318804539,53.27524323366758,0 -0.5271047881344249,53.2752524448707,0 -0.5269653586928924,53.27526595722856,0 -0.526847327729939,53.27527594150035,0 -0.5267534076960989,53.27527989794419,0 -0.5266506198500542,53.27528068462388,0 -0.5265260862407295,53.27527756877309,0 -0.5263900303123459,53.27527321786805,0 -0.5262404196311721,53.27526533875849,0 
			</coordinates>
		</LineString>
	</Placemark>
</Document>
</kml>
