<?xml version="1.0" encoding="UTF-8"?>
<kml xmlns="http://www.opengis.net/kml/2.2" xmlns:gx="http://www.google.com/kml/ext/2.2" xmlns:kml="http://www.opengis.net/kml/2.2" xmlns:atom="http://www.w3.org/2005/Atom">
<Document id="document">
	<name>r_ff7_man_tmap</name>
	<gx:CascadingStyle kml:id="__managed_style_30219FF0A93DEEE2EE58">
		<Style>
			<IconStyle>
				<scale>1.2</scale>
				<Icon>
					<href>https://earth.google.com/earth/document/icon?color=1976d2&amp;id=2000&amp;scale=4</href>
				</Icon>
				<hotSpot x="64" y="128" xunits="pixels" yunits="insetPixels"/>
			</IconStyle>
			<LabelStyle>
			</LabelStyle>
			<LineStyle>
				<color>ff2dc0fb</color>
				<width>7.5</width>
			</LineStyle>
			<PolyStyle>
				<color>40ffffff</color>
			</PolyStyle>
			<BalloonStyle>
				<displayMode>hide</displayMode>
			</BalloonStyle>
		</Style>
	</gx:CascadingStyle>
	<gx:CascadingStyle kml:id="__managed_style_278CE2353C3DEEE2EE58">
		<Style>
			<IconStyle>
				<Icon>
					<href>https://earth.google.com/earth/document/icon?color=1976d2&amp;id=2000&amp;scale=4</href>
				</Icon>
				<hotSpot x="64" y="128" xunits="pixels" yunits="insetPixels"/>
			</IconStyle>
			<LabelStyle>
			</LabelStyle>
			<LineStyle>
				<color>ff2dc0fb</color>
				<width>5</width>
			</LineStyle>
			<PolyStyle>
				<color>40ffffff</color>
			</PolyStyle>
			<BalloonStyle>
				<displayMode>hide</displayMode>
			</BalloonStyle>
		</Style>
	</gx:CascadingStyle>
	<StyleMap id="__managed_style_1B0BE147153DEEE2EE58">
		<Pair>
			<key>normal</key>
			<styleUrl>#__managed_style_278CE2353C3DEEE2EE58</styleUrl>
		</Pair>
		<Pair>
			<key>highlight</key>
			<styleUrl>#__managed_style_30219FF0A93DEEE2EE58</styleUrl>
		</Pair>
	</StyleMap>
	<gx:CascadingStyle kml:id="__managed_style_298E42624A3DEEE2EE57">
		<Style>
			<IconStyle>
				<scale>1.2</scale>
				<Icon>
					<href>https://earth.google.com/earth/document/icon?color=1976d2&amp;id=2000&amp;scale=4</href>
				</Icon>
				<hotSpot x="64" y="128" xunits="pixels" yunits="insetPixels"/>
			</IconStyle>
			<LabelStyle>
			</LabelStyle>
			<LineStyle>
				<color>ff2dc0fb</color>
				<width>6</width>
			</LineStyle>
			<PolyStyle>
				<color>40ffffff</color>
			</PolyStyle>
			<BalloonStyle>
				<displayMode>hide</displayMode>
			</BalloonStyle>
		</Style>
	</gx:CascadingStyle>
	<gx:CascadingStyle kml:id="__managed_style_1CF34A490D3DEEE2EE57">
		<Style>
			<IconStyle>
				<Icon>
					<href>https://earth.google.com/earth/document/icon?color=1976d2&amp;id=2000&amp;scale=4</href>
				</Icon>
				<hotSpot x="64" y="128" xunits="pixels" yunits="insetPixels"/>
			</IconStyle>
			<LabelStyle>
			</LabelStyle>
			<LineStyle>
				<color>ff2dc0fb</color>
				<width>4</width>
			</LineStyle>
			<PolyStyle>
				<color>40ffffff</color>
			</PolyStyle>
			<BalloonStyle>
				<displayMode>hide</displayMode>
			</BalloonStyle>
		</Style>
	</gx:CascadingStyle>
	<StyleMap id="__managed_style_0DB38436E03DEEE2EE57">
		<Pair>
			<key>normal</key>
			<styleUrl>#__managed_style_1CF34A490D3DEEE2EE57</styleUrl>
		</Pair>
		<Pair>
			<key>highlight</key>
			<styleUrl>#__managed_style_298E42624A3DEEE2EE57</styleUrl>
		</Pair>
	</StyleMap>
	<gx:CascadingStyle kml:id="__managed_style_0F89E5EC7F3DEEE2EE56">
		<Style>
			<IconStyle>
				<scale>1.2</scale>
				<Icon>
					<href>https://earth.google.com/earth/document/icon?color=1976d2&amp;id=2000&amp;scale=4</href>
				</Icon>
				<hotSpot x="64" y="128" xunits="pixels" yunits="insetPixels"/>
			</IconStyle>
			<LabelStyle>
			</LabelStyle>
			<LineStyle>
				<color>ff2dc0fb</color>
				<width>6</width>
			</LineStyle>
			<PolyStyle>
				<color>00ffffff</color>
			</PolyStyle>
			<BalloonStyle>
				<displayMode>hide</displayMode>
			</BalloonStyle>
		</Style>
	</gx:CascadingStyle>
	<gx:CascadingStyle kml:id="__managed_style_19F04C2FFE3DEEE2EE54">
		<Style>
			<IconStyle>
				<Icon>
					<href>https://earth.google.com/earth/document/icon?color=1976d2&amp;id=2000&amp;scale=4</href>
				</Icon>
				<hotSpot x="64" y="128" xunits="pixels" yunits="insetPixels"/>
			</IconStyle>
			<LabelStyle>
			</LabelStyle>
			<LineStyle>
				<color>ff2dc0fb</color>
				<width>4</width>
			</LineStyle>
			<PolyStyle>
				<color>00ffffff</color>
			</PolyStyle>
			<BalloonStyle>
				<displayMode>hide</displayMode>
			</BalloonStyle>
		</Style>
	</gx:CascadingStyle>
	<StyleMap id="__managed_style_00346FB78E3DEEE2EE54">
		<Pair>
			<key>normal</key>
			<styleUrl>#__managed_style_19F04C2FFE3DEEE2EE54</styleUrl>
		</Pair>
		<Pair>
			<key>highlight</key>
			<styleUrl>#__managed_style_0F89E5EC7F3DEEE2EE56</styleUrl>
		</Pair>
	</StyleMap>
	<Placemark id="5ACC9245AB000001">
		<name>1</name>
		<LookAt>
			<longitude>-0.5250482632103703</longitude>
			<latitude>53.27285788296231</latitude>
			<altitude>51.89249633912087</altitude>
			<heading>359.9999919851637</heading>
			<tilt>0</tilt>
			<gx:fovy>35</gx:fovy>
			<range>373.7765923408369</range>
			<altitudeMode>absolute</altitudeMode>
		</LookAt>
		<styleUrl>#__managed_style_00346FB78E3DEEE2EE54</styleUrl>
		<Polygon>
			<outerBoundaryIs>
				<LinearRing>
					<coordinates>
						-0.5266028785688159,53.27246837880654,52.40306385037127 -0.52644737779307,53.27235512825377,52.62623112280012 -0.5249236454133988,53.27271380009181,51.6252940405913 -0.5247854765211413,53.27274333222871,51.1248254994869 -0.5246414638636721,53.27277817811453,50.99970836421079 -0.5246414637380825,53.27277800719433,50.87459122893469 -0.5244975998493806,53.27281078077665,50.81203266129664 -0.5243506983965285,53.27284507383507,50.74947409365859 -0.5241922570330393,53.2728818751287,50.68691552602053 -0.5240314456983708,53.27291797040522,50.65563624220151 -0.5238915532874056,53.27294589544417,50.62435695838249 -0.5245791834574798,53.27371047444711,50.46879440597408 -0.5269592836594661,53.27277179124355,53.3242724176118 -0.5266028785688159,53.27246837880654,52.40306385037127 
					</coordinates>
				</LinearRing>
			</outerBoundaryIs>
		</Polygon>
	</Placemark>
	<Placemark id="5ACC9245AB000002">
		<name>2</name>
		<LookAt>
			<longitude>-0.5250482632103703</longitude>
			<latitude>53.27285788293711</latitude>
			<altitude>51.89249633912087</altitude>
			<heading>359.9999922160223</heading>
			<tilt>0</tilt>
			<gx:fovy>35</gx:fovy>
			<range>373.776592340837</range>
			<altitudeMode>absolute</altitudeMode>
		</LookAt>
		<styleUrl>#__managed_style_00346FB78E3DEEE2EE54</styleUrl>
		<Polygon>
			<outerBoundaryIs>
				<LinearRing>
					<coordinates>
						-0.5267063790239623,53.2725567120014,52.45099663386247 -0.524153981877914,53.27323801996553,50.37152637213064 -0.5242291837260726,53.27332110569613,50.02737611230442 -0.5254497631403032,53.27297397839931,52.14321943736004 -0.5255368153288009,53.27303798592929,52.28223706562076 -0.5254495026616546,53.27297382254734,52.11686602307822 -0.5257493735152929,53.27287815167797,52.28221360650637 -0.5258203150908669,53.27293284272245,52.2566445977857 -0.5259170871582863,53.27300727158327,52.23107558906504 -0.5256264022581458,53.27310374075539,52.1056604233565 -0.5255365684587465,53.2730378616006,52.28221476934735 -0.524322772182747,53.27342532468024,50.00672445536824 -0.5243988972636859,53.27350990675971,50.00172301405365 -0.5268642397519518,53.27269277272296,52.71532723787536 -0.5267063790239623,53.2725567120014,52.45099663386247 
					</coordinates>
				</LinearRing>
			</outerBoundaryIs>
		</Polygon>
	</Placemark>
	<Placemark id="5ACC9245AB000003">
		<name>3</name>
		<LookAt>
			<longitude>-0.525744477844694</longitude>
			<latitude>53.2727192064124</latitude>
			<altitude>52.40683513890225</altitude>
			<heading>0</heading>
			<tilt>0</tilt>
			<gx:fovy>35</gx:fovy>
			<range>246.8153352046647</range>
			<altitudeMode>absolute</altitudeMode>
		</LookAt>
		<styleUrl>#__managed_style_0DB38436E03DEEE2EE57</styleUrl>
		<LineString>
			<coordinates>
				-0.5267939563490442,53.27263189273263,52.42852682129193 -0.5258195752513373,53.27293245625702,52.18852302889964 -0.5257492304477251,53.27287786327075,52.28219086178942 -0.5254103656048092,53.27259918450611,51.78182573254392 -0.5252451300052563,53.2726378358252,51.75707256357914 -0.5250834370447355,53.27267567282238,51.73231939461436 -0.5254500234505366,53.27297397855089,52.14321943736004 -0.5242292256951708,53.27332123420761,50.03904567850532 -0.5241541002620964,53.27323800008415,50.12418725432535 -0.5240503835535848,53.27312260699838,50.20932883014537 -0.5252574273495092,53.27282477302794,51.69091415391024 -0.5256008003167989,53.27274223421297,52.45620484301625 -0.5266196315696026,53.27248332282871,52.5259199680544 -0.5266026294122406,53.27246837869375,52.51007761842393 -0.5266190636659784,53.27246110232377,52.49423526879347 -0.5266031995904952,53.27246823415482,52.46255056953257 -0.5264472471091364,53.27235503108921,52.62242562382691 -0.5260626716405759,53.27244577870082,52.23842224510437 -0.5257877300850433,53.27250989979901,52.0464205557431 -0.5256504963597797,53.2725429669429,51.85441886638186 -0.5262946410247371,53.27303346092794,52.40159162578303 -0.5265354576795045,53.27293915142867,52.40430981326536 -0.5259183859363514,53.2724796531131,51.91379272206463 -0.5260627096735933,53.27244574799911,51.87518675295242 -0.5262070331819069,53.27241184271086,51.83658078384022 -0.5267698930707143,53.272846441233,52.96150302664346 -0.5260892875469247,53.2731147154083,52.29860975066732 -0.5259173963226904,53.27300663499732,52.22059793062829 -0.5257743597938891,53.27305448530468,52.20327912378157 -0.5256262486678653,53.27310353339838,52.18596031693488 -0.5258203338180167,53.27322123352758,52.34048886746265 -0.5256590429936703,53.27328478932471,52.14833333968566 -0.5254961179669404,53.27334826642599,51.95617781190868 -0.5247847855727228,53.27274432237694,51.83333230974714 -0.5244985362961907,53.27281172702212,51.45128440728632 -0.5252179230108089,53.27345849116202,51.70198646404521 -0.5250845182887398,53.27351103354869,51.43947025199459 -0.5249481284175928,53.27356532453075,51.17695403994398 -0.5241963122274096,53.27288124371112,51.01088156096887 -0.5240319830556794,53.27291789040151,50.7303569179531 -0.5247766899468831,53.27363291549742,50.97018113770699 -0.525084748928617,53.27351117154704,51.39274616885135 -0.5243505619026623,53.27284534761498,51.12219421986793 -0.5246420364252502,53.27277817824196,51.77020414697275 -0.5253515644040607,53.2734060309512,51.97927914898794 -0.525496368640932,53.27334826672864,51.99889565481852 -0.5255465873229048,53.27335506472424,52.01851216064908 -0.5254961179664908,53.2733484163308,52.05774517231023 -0.5256592917230873,53.27328478934984,52.13621119563253 -0.5249248651324445,53.27271291725626,51.89110112657679 -0.5252450914218898,53.27263774246552,51.91380823934292 -0.5255755713899413,53.27293324614058,52.26732661915938 -0.5257497224756336,53.27287815863234,52.28221447085654 -0.5259171501350801,53.27300678283646,52.22462165184878 -0.5257743597938891,53.27305448531099,52.21373193745583 -0.5259524524946457,53.27316876712658,52.37174811404704 -0.5261987201454776,53.27307191250951,52.33733143306727 -0.5255300536040408,53.27257108377228,51.79465373734251 -0.5257882212031495,53.27250989979836,51.91379283099256 -0.526416071336373,53.27298610744858,52.42135004684213 -0.5265352178471905,53.27293920747018,52.45945262817556 -0.526642465407493,53.27289642438282,52.497555209509 -0.5260626716412953,53.27244565526684,51.9137443962607 -0.5262067689005201,53.27241167408345,52.10340529414907 -0.5263419977070627,53.27237979179868,52.29306619203745 -0.5268627366833023,53.27281021236183,53.44473221993339 
			</coordinates>
		</LineString>
	</Placemark>
	<Placemark id="5ACC9245AB000004">
		<name>4</name>
		<LookAt>
			<longitude>-0.5250529593948616</longitude>
			<latitude>53.27285963236407</latitude>
			<altitude>51.90524656655051</altitude>
			<heading>359.9999921902194</heading>
			<tilt>0</tilt>
			<gx:fovy>35</gx:fovy>
			<range>373.7651889619519</range>
			<altitudeMode>absolute</altitudeMode>
		</LookAt>
		<styleUrl>#__managed_style_1B0BE147153DEEE2EE58</styleUrl>
		<LineString>
			<coordinates>
				-0.5269280995448056,53.27274418472497,53.15223469170967 -0.5244968200411326,53.27361345277117,50.02946056559723 
			</coordinates>
		</LineString>
	</Placemark>
	<Placemark id="5ACC9245AB000005">
		<name>5</name>
		<LookAt>
			<longitude>-0.5250529593948616</longitude>
			<latitude>53.27285963245227</latitude>
			<altitude>51.90524656513586</altitude>
			<heading>359.9999922160223</heading>
			<tilt>0</tilt>
			<gx:fovy>35</gx:fovy>
			<range>373.7651889619519</range>
			<altitudeMode>absolute</altitudeMode>
		</LookAt>
		<styleUrl>#__managed_style_0DB38436E03DEEE2EE57</styleUrl>
		<LineString>
			<coordinates>
				-0.52652504013176,53.2724084590732,52.79839270116953 -0.5239712942210617,53.27303396477652,50.55040662077364 
			</coordinates>
		</LineString>
	</Placemark>
</Document>
</kml>
