<?xml version="1.0" encoding="UTF-8"?>
<kml xmlns="http://www.opengis.net/kml/2.2" xmlns:gx="http://www.google.com/kml/ext/2.2" xmlns:kml="http://www.opengis.net/kml/2.2" xmlns:atom="http://www.w3.org/2005/Atom">
<Document>
    <name>None_kml_autogen</name>
    <gx:CascadingStyle kml:id="__managed_style_a">
        <Style>
            <LineStyle>
                <color>ff2f2fd3</color>
                <width>4</width>
            </LineStyle>
            <PolyStyle>
                <color>c02f2fd3</color>
            </PolyStyle>
        </Style>
    </gx:CascadingStyle>
    <StyleMap id="__managed_style_a_map">
        <Pair>
            <key>normal</key>
            <styleUrl>#__managed_style_a</styleUrl>
        </Pair>
        <Pair>
            <key>highlight</key>
            <styleUrl>#__managed_style_a</styleUrl>
        </Pair>
    </StyleMap>
    <Placemark id="datum_fence_placemark">
        <name>None</name>
        <description><![CDATA[<div>None</div>]]></description>
        <LookAt>
            <longitude>-0.5218254804954048</longitude>
            <latitude>53.27438154325286</latitude>
            <altitude>0</altitude>
            <heading>0</heading>
            <tilt>0</tilt>
            <gx:fovy>35</gx:fovy>
            <range>100</range>
            <altitudeMode>absolute</altitudeMode>
        </LookAt>
        <styleUrl>#__managed_style_a</styleUrl>
        <Polygon>
            <outerBoundaryIs>
                <LinearRing>
                    <coordinates>
                        -0.5218254804954048,53.27438154325286,0 -0.5221946421062551,53.27442696085559,0 -0.5227948963779627,53.27457379896931,0 -0.5232302205042594,53.27478489873728,0 -0.5236756343692206,53.27500562119582,0 -0.5244289922790757,53.27523633068854,0 -0.5252976944193377,53.27551382957077,0 -0.525937036098636,53.27544033279834,0 -0.5262857122837006,53.27542476232283,0 -0.5270271618823985,53.27535781565429,0 -0.5277285278856436,53.27526649764417,0 -0.5283601404811389,53.27514167365838,0 -0.5288305514788638,53.27501196783343,0 -0.5291958127556884,53.27486539582063,0 -0.5291005678433913,53.27477565144231,0 -0.5290458636107276,53.27477380682481,0 -0.529008814184071,53.27475768721099,0 -0.5289657230986811,53.27474895229724,0 -0.5289045516847968,53.27476035938674,0 -0.5288537500692825,53.2747840259085,0 -0.5287730492838483,53.2748268502034,0 -0.5287270434346181,53.27485654850197,0 -0.5286676644341215,53.27489446494638,0 -0.5285344590551244,53.27494718291943,0 -0.5284025392156622,53.27496631154314,0 -0.5283868678520753,53.27493532660264,0 -0.5282653950684235,53.27494690793885,0 -0.5281545297228696,53.27495051915894,0 -0.5280523446740071,53.27493882572588,0 -0.5280304635376043,53.27492288989839,0 -0.5276570358967447,53.27507203938689,0 -0.5269238052945402,53.27511453083694,0 -0.5258954141096106,53.27506672764838,0 -0.5244710271893982,53.27482838658799,0 -0.5244056909806349,53.27478656253562,0 -0.5242276221963171,53.27449881684038,0 -0.5237401324163837,53.27405692969059,0 -0.5235386521985541,53.27374857083803,0 -0.5232374632335657,53.2738005425684,0 -0.5228393622862082,53.2738486754076,0 -0.5221769790614483,53.27396386659692,0 -0.5216590424798351,53.27408644953639,0 -0.521300426568988,53.27429296293357,0 -0.5218254804954048,53.27438154325286,0
                    </coordinates>
                </LinearRing>
            </outerBoundaryIs>
        </Polygon>
    </Placemark>
</Document>
</kml>